TRANSPORTER-16 OBJECT AG
1 68446U 26067AG  26104.14754476  .00010917  00000+0  55598-3 0  9992
2 68446  97.4363  63.5285 0005085 311.4083  48.6713 15.16956596  2216
