{
  "norad_id": 68446,
  "name": "TRANSPORTER-16 OBJECT AG",
  "history": [
    {
      "epoch": "2026-04-14T03:32:27.867264Z",
      "apogee_km": 518.5500705516288,
      "perigee_km": 511.5397045719774,
      "latitude_deg": 1.9458492066401865e-05,
      "longitude_deg": 168.084243687079,
      "height_km": 515.8159535037108,
      "semi_major_axis_km": 6893.181887561803,
      "eccentricity": 0.0005085,
      "inclination_deg": 97.4363,
      "raan_deg": 63.5285,
      "arg_perigee_deg": 311.4083,
      "mean_anomaly_deg": 48.6713,
      "mean_motion_rev_day": 15.16956596
    }
  ]
}